CCSDS_OMM_VERS,COMMENT,CREATION_DATE,ORIGINATOR,OBJECT_NAME,OBJECT_ID,CENTER_NAME,REF_FRAME,TIME_SYSTEM,MEAN_ELEMENT_THEORY,EPOCH,MEAN_MOTION,ECCENTRICITY,INCLINATION,RA_OF_ASC_NODE,ARG_OF_PERICENTER,MEAN_ANOMALY,EPHEMERIS_TYPE,CLASSIFICATION_TYPE,NORAD_CAT_ID,ELEMENT_SET_NO,REV_AT_EPOCH,BSTAR,MEAN_MOTION_DOT,MEAN_MOTION_DDOT,SEMIMAJOR_AXIS,PERIOD,APOAPSIS,PERIAPSIS,OBJECT_TYPE,RCS_SIZE,COUNTRY_CODE,LAUNCH_DATE,SITE,DECAY_DATE,FILE,GP_ID,TLE_LINE0,TLE_LINE1,TLE_LINE2
"2.0","GENERATED VIA SPACE-TRACK.ORG API","2020-09-04T06:16:09","18 SPCS","IRIDIUM 153","2017-083J","EARTH","TEME","UTC","SGP4","2020-09-04T02:55:30.466560","14.34218100","0.00029380","86.3926","93.1046","97.9056","262.2473","0","U","43078","999","14255","0.00000713770000","0.00000040","0.0000000000000","7155.802","100.403","779.770","775.565","PAYLOAD","LARGE","US","2017-12-23","AFWTR","","2813959","160681701","0 IRIDIUM 153","1 43078U 17083J   20248.12188040  .00000040  00000-0  71377-5 0  9995","2 43078  86.3926  93.1046 0002938  97.9056 262.2473 14.34218100142556"
"2.0","GENERATED VIA SPACE-TRACK.ORG API","2020-09-04T03:32:17","18 SPCS","COSMOS 1867","1987-060A","EARTH","TEME","UTC","SGP4","2020-09-03T20:45:09.232416","14.31114296","0.00142410","65.0106","181.2814","277.2626","82.6839","0","U","18187","999","73186","0.00000431560000","-0.00000089","0.0000000000000","7166.145","100.620","798.215","777.805","PAYLOAD","LARGE","CIS","1987-07-10","TTMTR","","2813944","160664643","0 COSMOS 1867","1 18187U 87060A   20247.86469019 -.00000089 +00000-0 +43156-5 0  9996","2 18187 065.0106 181.2814 0014241 277.2626 082.6839 14.31114296731867"
"2.0","GENERATED VIA SPACE-TRACK.ORG API","2020-09-04T03:32:17","18 SPCS","IRIDIUM 153","2017-083J","EARTH","TEME","UTC","SGP4","2020-09-03T20:13:38.471232","14.34218115","0.00029390","86.3926","93.2213","98.1963","261.9566","0","U","43078","999","14251","0.00000965690000","0.00000047","0.0000000000000","7155.802","100.403","779.771","775.564","PAYLOAD","LARGE","US","2017-12-23","AFWTR","","2813944","160678261","0 IRIDIUM 153","1 43078U 17083J   20247.84280638 +.00000047 +00000-0 +96569-5 0  9996","2 43078 086.3926 093.2213 0002939 098.1963 261.9566 14.34218115142515"
"2.0","GENERATED VIA SPACE-TRACK.ORG API","2020-09-03T22:00:58","18 SPCS","IRIDIUM 153","2017-083J","EARTH","TEME","UTC","SGP4","2020-09-03T13:31:46.470720","14.34218197","0.00029260","86.3926","93.3381","98.5271","261.6256","0","U","43078","999","14247","0.00001434100000","0.00000060","0.0000000000000","7155.802","100.403","779.761","775.573","PAYLOAD","LARGE","US","2017-12-23","AFWTR","","2813871","160656940","0 IRIDIUM 153","1 43078U 17083J   20247.56373230 +.00000060 +00000-0 +14341-4 0  9998","2 43078 086.3926 093.3381 0002926 098.5271 261.6256 14.34218197142472"
"2.0","GENERATED VIA SPACE-TRACK.ORG API","2020-09-03T22:00:58","18 SPCS","COSMOS 1867","1987-060A","EARTH","TEME","UTC","SGP4","2020-09-03T12:22:00.846912","14.31114275","0.00142390","65.0106","182.2593","277.2594","82.6871","0","U","18187","999","73181","0.00000561530000","-0.00000085","0.0000000000000","7166.145","100.620","798.214","777.806","PAYLOAD","LARGE","CIS","1987-07-10","TTMTR","","2813871","160643825","0 COSMOS 1867","1 18187U 87060A   20247.51528758 -.00000085 +00000-0 +56153-5 0  9991","2 18187 065.0106 182.2593 0014239 277.2594 082.6871 14.31114275731811"
"2.0","GENERATED VIA SPACE-TRACK.ORG API","2020-09-03T01:48:27","18 SPCS","COSMOS 1867","1987-060A","EARTH","TEME","UTC","SGP4","2020-09-02T21:16:21.754560","14.31114224","0.00142180","65.0105","184.0194","277.2027","82.7440","0","U","18187","999","73172","0.00000416280000","-0.00000089","0.0000000000000","7166.145","100.620","798.199","777.822","PAYLOAD","LARGE","CIS","1987-07-10","TTMTR","","2813294","160611268","0 COSMOS 1867","1 18187U 87060A   20246.88636290 -.00000089 +00000-0 +41628-5 0  9996","2 18187 065.0105 184.0194 0014218 277.2027 082.7440 14.31114224731722"
"2.0","GENERATED VIA SPACE-TRACK.ORG API","2020-09-02T22:16:09","18 SPCS","IRIDIUM 153","2017-083J","EARTH","TEME","UTC","SGP4","2020-09-02T15:45:42.488064","14.34218246","0.00029060","86.3927","93.7177","99.3585","260.7939","0","U","43078","999","14234","0.00002254400000","0.00000083","0.0000000000000","7155.802","100.403","779.746","775.588","PAYLOAD","LARGE","US","2017-12-23","AFWTR","","2813141","160602590","0 IRIDIUM 153","1 43078U 17083J   20246.65674176  .00000083  00000-0  22544-4 0  9999","2 43078  86.3927  93.7177 0002906  99.3585 260.7939 14.34218246142344"
"2.0","GENERATED VIA SPACE-TRACK.ORG API","2020-09-02T22:26:10","18 SPCS","COSMOS 1867","1987-060A","EARTH","TEME","UTC","SGP4","2020-09-02T12:53:13.366464","14.31114204","0.00142160","65.0105","184.9972","277.2025","82.7443","0","U","18187","999","73190","0.00000490940000","-0.00000087","0.0000000000000","7166.145","100.620","798.198","777.823","PAYLOAD","LARGE","CIS","1987-07-10","TTMTR","","2813154","160603264","0 COSMOS 1867","1 18187U 87060A   20246.53696026 -.00000087  00000-0  49094-5 0  9994","2 18187  65.0105 184.9972 0014216 277.2025  82.7443 14.31114204731902"
"2.0","GENERATED VIA SPACE-TRACK.ORG API","2020-09-02T18:57:38","18 SPCS","IRIDIUM 153","2017-083J","EARTH","TEME","UTC","SGP4","2020-09-02T12:24:46.491264","14.34218255","0.00028990","86.3927","93.7761","99.4680","260.6844","0","U","43078","999","14232","0.00002429800000","0.00000088","0.0000000000000","7155.802","100.403","779.741","775.593","PAYLOAD","LARGE","US","2017-12-23","AFWTR","","2813120","160597548","0 IRIDIUM 153","1 43078U 17083J   20246.51720476 +.00000088 +00000-0 +24298-4 0  9992","2 43078 086.3927 093.7761 0002899 099.4680 260.6844 14.34218255142323"
"2.0","GENERATED VIA SPACE-TRACK.ORG API","2020-09-02T18:57:38","18 SPCS","COSMOS 1867","1987-060A","EARTH","TEME","UTC","SGP4","2020-09-02T06:10:42.654432","14.31114192","0.00142150","65.0104","185.7795","277.1667","82.7800","0","U","18187","999","73163","0.00000507220000","-0.00000087","0.0000000000000","7166.145","100.620","798.197","777.824","PAYLOAD","LARGE","CIS","1987-07-10","TTMTR","","2813120","160587426","0 COSMOS 1867","1 18187U 87060A   20246.25743813 -.00000087 +00000-0 +50722-5 0  9990","2 18187 065.0104 185.7795 0014215 277.1667 082.7800 14.31114192731636"
"2.0","GENERATED VIA SPACE-TRACK.ORG API","2020-09-02T04:04:35","18 SPCS","COSMOS 1867","1987-060A","EARTH","TEME","UTC","SGP4","2020-09-01T21:47:34.260288","14.31114178","0.00142130","65.0104","186.7573","277.1208","82.8260","0","U","18187","999","73158","0.00000182730000","-0.00000095","0.0000000000000","7166.145","100.620","798.196","777.825","PAYLOAD","LARGE","CIS","1987-07-10","TTMTR","","2812822","160536856","0 COSMOS 1867","1 18187U 87060A   20245.90803542 -.00000095 +00000-0 +18273-5 0  9991","2 18187 065.0104 186.7573 0014213 277.1208 082.8260 14.31114178731589"
"2.0","GENERATED VIA SPACE-TRACK.ORG API","2020-09-02T04:04:35","18 SPCS","IRIDIUM 153","2017-083J","EARTH","TEME","UTC","SGP4","2020-09-01T16:19:10.514784","14.34218153","0.00028770","86.3928","94.1265","100.1754","259.9766","0","U","43078","999","14220","0.00002546200000","0.00000091","0.0000000000000","7155.802","100.403","779.726","775.609","PAYLOAD","LARGE","US","2017-12-23","AFWTR","","2812822","160551913","0 IRIDIUM 153","1 43078U 17083J   20245.67998281 +.00000091 +00000-0 +25462-4 0  9997","2 43078 086.3928 094.1265 0002877 100.1754 259.9766 14.34218153142204"
"2.0","GENERATED VIA SPACE-TRACK.ORG API","2020-09-01T17:49:39","18 SPCS","IRIDIUM 153","2017-083J","EARTH","TEME","UTC","SGP4","2020-09-01T12:58:14.514528","14.34218186","0.00028650","86.3928","94.1849","100.2457","259.9062","0","U","43078","999","14218","0.00002817700000","0.00000099","0.0000000000000","7155.802","100.403","779.717","775.617","PAYLOAD","LARGE","US","2017-12-23","AFWTR","","2812600","160524655","0 IRIDIUM 153","1 43078U 17083J   20245.54044577 +.00000099 +00000-0 +28177-4 0  9997","2 43078 086.3928 094.1849 0002865 100.2457 259.9062 14.34218186142182"
"2.0","GENERATED VIA SPACE-TRACK.ORG API","2020-09-01T14:26:09","18 SPCS","COSMOS 1867","1987-060A","EARTH","TEME","UTC","SGP4","2020-09-01T06:41:55.154112","14.31114166","0.00142110","65.0104","188.5174","277.0851","82.8617","0","U","18187","999","73172","0.00000115450000","-0.00000097","0.0000000000000","7166.146","100.620","798.194","777.827","PAYLOAD","LARGE","CIS","1987-07-10","TTMTR","","2812416","160504203","0 COSMOS 1867","1 18187U 87060A   20245.27911058 -.00000097  00000-0  11545-5 0  9990","2 18187  65.0104 188.5174 0014211 277.0851  82.8617 14.31114166731726"
"2.0","GENERATED VIA SPACE-TRACK.ORG API","2020-09-01T14:16:10","18 SPCS","IRIDIUM 153","2017-083J","EARTH","TEME","UTC","SGP4","2020-09-01T02:55:26.524128","14.34218125","0.00028520","86.3929","94.3601","100.5929","259.5588","0","U","43078","999","14212","0.00002829400000","0.00000099","0.0000000000000","7155.802","100.403","779.708","775.627","PAYLOAD","LARGE","US","2017-12-23","AFWTR","","2812404","160503857","0 IRIDIUM 153","1 43078U 17083J   20245.12183477  .00000099  00000-0  28294-4 0  9994","2 43078  86.3929  94.3601 0002852 100.5929 259.5588 14.34218125142120"
"2.0","GENERATED VIA SPACE-TRACK.ORG API","2020-09-01T03:53:43","18 SPCS","COSMOS 1867","1987-060A","EARTH","TEME","UTC","SGP4","2020-08-31T22:18:46.757376","14.31114161","0.00142090","65.0104","189.4952","277.0440","82.9028","0","U","18187","999","73144","-0.00000299540000","-0.00000108","0.0000000000000","7166.146","100.620","798.193","777.828","PAYLOAD","LARGE","CIS","1987-07-10","TTMTR","","2812159","160483915","0 COSMOS 1867","1 18187U 87060A   20244.92970784 -.00000108 +00000-0 -29954-5 0  9999","2 18187 065.0104 189.4952 0014209 277.0440 082.9028 14.31114161731442"
